$$SOE
2460728.500000000, A.D. 2025-Feb-22 00:00:00.0000, 3.502109534974279E+07, -4.423118524682165E+08, 8.357988917251825E+05,
2460735.500000000, A.D. 2025-Mar-01 00:00:00.0000, 4.573449683552580E+07, -4.425468847458127E+08, 3.788791964803040E+05,
2460742.500000000, A.D. 2025-Mar-08 00:00:00.0000, 5.642270184026050E+07, -4.425380354080710E+08, -7.824994761335850E+04,
2460749.500000000, A.D. 2025-Mar-15 00:00:00.0000, 6.708007650974277E+07, -4.422872968946432E+08, -5.353372180697620E+05,
2460756.500000000, A.D. 2025-Mar-22 00:00:00.0000, 7.770109748932639E+07, -4.417967829794138E+08, -9.921351680186391E+05,
2460763.500000000, A.D. 2025-Mar-29 00:00:00.0000, 8.828035283457039E+07, -4.410687248911949E+08, -1.448400397024006E+06,
2460770.500000000, A.D. 2025-Apr-05 00:00:00.0000, 9.881254434731795E+07, -4.401054666253871E+08, -1.903893792472184E+06,
2460777.500000000, A.D. 2025-Apr-12 00:00:00.0000, 1.092924894231621E+08, -4.389094593540230E+08, -2.358380657057464E+06,
2460784.500000000, A.D. 2025-Apr-19 00:00:00.0000, 1.197151222350533E+08, -4.374832558252478E+08, -2.811630777932495E+06,
2460791.500000000, A.D. 2025-Apr-26 00:00:00.0000, 1.300754945367839E+08, -4.358295049637861E+08, -3.263418479748249E+06,
2460798.500000000, A.D. 2025-May-03 00:00:00.0000, 1.403687762120328E+08, -4.339509466606655E+08, -3.713522671143889E+06,
2460805.500000000, A.D. 2025-May-10 00:00:00.0000, 1.505902556094563E+08, -4.318504067498645E+08, -4.161726887291312E+06,
2460812.500000000, A.D. 2025-May-17 00:00:00.0000, 1.607353397124480E+08, -4.295307922183064E+08, -4.607819335868299E+06,
2460819.500000000, A.D. 2025-May-24 00:00:00.0000, 1.707995543291833E+08, -4.269950867084540E+08, -5.051592967417270E+06,
2460826.500000000, A.D. 2025-May-31 00:00:00.0000, 1.807785447318317E+08, -4.242463460066030E+08, -5.492845583440661E+06,
2460833.500000000, A.D. 2025-Jun-07 00:00:00.0000, 1.906680763544755E+08, -4.212876923148308E+08, -5.931379847424239E+06,
2460840.500000000, A.D. 2025-Jun-14 00:00:00.0000, 2.004640331955732E+08, -4.181223079742488E+08, -6.367003036921352E+06,
2460847.500000000, A.D. 2025-Jun-21 00:00:00.0000, 2.101624151531170E+08, -4.147534319103789E+08, -6.799526916264415E+06,
2460854.500000000, A.D. 2025-Jun-28 00:00:00.0000, 2.197593374333425E+08, -4.111843570368498E+08, -7.228767873161018E+06,
2460861.500000000, A.D. 2025-Jul-05 00:00:00.0000, 2.292510305282058E+08, -4.074184264637576E+08, -7.654547004194915E+06,
2460868.500000000, A.D. 2025-Jul-12 00:00:00.0000, 2.386338395806385E+08, -4.034590293184052E+08, -8.076690106085569E+06,
2460875.500000000, A.D. 2025-Jul-19 00:00:00.0000, 2.479042233358144E+08, -3.993095967542505E+08, -8.495027637343198E+06,
2460882.500000000, A.D. 2025-Jul-26 00:00:00.0000, 2.570587528964041E+08, -3.949735982038819E+08, -8.909394674432039E+06,
2460889.500000000, A.D. 2025-Aug-02 00:00:00.0000, 2.660941103550217E+08, -3.904545378524447E+08, -9.319630866892576E+06,
2460896.500000000, A.D. 2025-Aug-09 00:00:00.0000, 2.750070873350650E+08, -3.857559513433301E+08, -9.725580394983977E+06,
2460903.500000000, A.D. 2025-Aug-16 00:00:00.0000, 2.837945835249298E+08, -3.808814027760010E+08, -1.012709194228363E+07,
2460910.500000000, A.D. 2025-Aug-23 00:00:00.0000, 2.924536055067589E+08, -3.758344819763858E+08, -1.052401870889282E+07,
2460917.500000000, A.D. 2025-Aug-30 00:00:00.0000, 3.009812662172925E+08, -3.706188013238204E+08, -1.091621843712962E+07,
2460924.500000000, A.D. 2025-Sep-06 00:00:00.0000, 3.093747836302691E+08, -3.652379911331329E+08, -1.130355323790658E+07,
2460931.500000000, A.D. 2025-Sep-13 00:00:00.0000, 3.176314769953904E+08, -3.596956960726330E+08, -1.168588926753590E+07,
2460938.500000000, A.D. 2025-Sep-20 00:00:00.0000, 3.257487639122770E+08, -3.539955742585868E+08, -1.206309668969437E+07,
2460945.500000000, A.D. 2025-Sep-27 00:00:00.0000, 3.337241593039241E+08, -3.481412959109641E+08, -1.243504976543897E+07,
2460952.500000000, A.D. 2025-Oct-04 00:00:00.0000, 3.415552742787451E+08, -3.421365410283439E+08, -1.280162684228414E+07,
2460959.500000000, A.D. 2025-Oct-11 00:00:00.0000, 3.492398145125908E+08, -3.359849970218477E+08, -1.316271028523853E+07,
2460966.500000000, A.D. 2025-Oct-18 00:00:00.0000, 3.567755784390057E+08, -3.296903565789660E+08, -1.351818639841238E+07,
2460973.500000000, A.D. 2025-Oct-25 00:00:00.0000, 3.641604553915620E+08, -3.232563157425401E+08, -1.386794534932265E+07,
2460980.500000000, A.D. 2025-Nov-01 00:00:00.0000, 3.713924237416326E+08, -3.166865721855988E+08, -1.421188109853674E+07,
2460987.500000000, A.D. 2025-Nov-08 00:00:00.0000, 3.784695490695497E+08, -3.099848237094545E+08, -1.454989134074111E+07,
2460994.500000000, A.D. 2025-Nov-15 00:00:00.0000, 3.853899825200172E+08, -3.031547670191710E+08, -1.488187747597653E+07,
2461001.500000000, A.D. 2025-Nov-22 00:00:00.0000, 3.921519597477707E+08, -2.962000965516384E+08, -1.520774463036653E+07,
2461008.500000000, A.D. 2025-Nov-29 00:00:00.0000, 3.987538003042737E+08, -2.891245022174014E+08, -1.552740161984180E+07,
2461015.500000000, A.D. 2025-Dec-06 00:00:00.0000, 4.051939051915249E+08, -2.819316661895712E+08, -1.584076065937693E+07,
2461022.500000000, A.D. 2025-Dec-13 00:00:00.0000, 4.114707530183422E+08, -2.746252621068506E+08, -1.614773713327312E+07,
2461029.500000000, A.D. 2025-Dec-20 00:00:00.0000, 4.175828982537282E+08, -2.672089556628488E+08, -1.644824966355111E+07,
2461036.500000000, A.D. 2025-Dec-27 00:00:00.0000, 4.235289705060557E+08, -2.596864039861344E+08, -1.674222016636805E+07,
2461043.500000000, A.D. 2026-Jan-03 00:00:00.0000, 4.293076733714735E+08, -2.520612544230347E+08, -1.702957381302471E+07,
2461050.500000000, A.D. 2026-Jan-10 00:00:00.0000, 4.349177829634292E+08, -2.443371433985747E+08, -1.731023896116525E+07,
2461057.500000000, A.D. 2026-Jan-17 00:00:00.0000, 4.403581463576437E+08, -2.365176954435548E+08, -1.758414708499883E+07,
2461064.500000000, A.D. 2026-Jan-24 00:00:00.0000, 4.456276800318576E+08, -2.286065223616317E+08, -1.785123270981430E+07,
2461071.500000000, A.D. 2026-Jan-31 00:00:00.0000, 4.507253683245527E+08, -2.206072225404139E+08, -1.811143335350335E+07,
2461078.500000000, A.D. 2026-Feb-07 00:00:00.0000, 4.556502619740468E+08, -2.125233804603000E+08, -1.836468948537122E+07,
2461085.500000000, A.D. 2026-Feb-14 00:00:00.0000, 4.604014769902138E+08, -2.043585664119527E+08, -1.861094452665332E+07,
2461092.500000000, A.D. 2026-Feb-21 00:00:00.0000, 4.649781942462186E+08, -1.961163358401145E+08, -1.885014488105169E+07,
2461099.500000000, A.D. 2026-Feb-28 00:00:00.0000, 4.693796587073064E+08, -1.878002271556866E+08, -1.908223980142503E+07,
2461106.500000000, A.D. 2026-Mar-07 00:00:00.0000, 4.736051762406650E+08, -1.794137599635896E+08, -1.930718106314782E+07,
2461113.500000000, A.D. 2026-Mar-14 00:00:00.0000, 4.776541107829492E+08, -1.709604360371997E+08, -1.952492288938791E+07,
2461120.500000000, A.D. 2026-Mar-21 00:00:00.0000, 4.815258836487097E+08, -1.624437401388705E+08, -1.973542205494884E+07,
2461127.500000000, A.D. 2026-Mar-28 00:00:00.0000, 4.852199729712034E+08, -1.538671396558285E+08, -1.993863790019706E+07,
2461134.500000000, A.D. 2026-Apr-04 00:00:00.0000, 4.887359126723463E+08, -1.452340840153810E+08, -2.013453227847078E+07,
2461141.500000000, A.D. 2026-Apr-11 00:00:00.0000, 4.920732912357116E+08, -1.365480042374950E+08, -2.032306949133935E+07,
2461148.500000000, A.D. 2026-Apr-18 00:00:00.0000, 4.952317504417809E+08, -1.278123126293420E+08, -2.050421622668026E+07,
2461155.500000000, A.D. 2026-Apr-25 00:00:00.0000, 4.982109841113722E+08, -1.190304026049687E+08, -2.067794150237948E+07,
2461162.500000000, A.D. 2026-May-02 00:00:00.0000, 5.010107368881833E+08, -1.102056486577185E+08, -2.084421662071364E+07,
2461169.500000000, A.D. 2026-May-09 00:00:00.0000, 5.036308031851206E+08, -1.013414065498236E+08, -2.100301515011312E+07,
2461176.500000000, A.D. 2026-May-16 00:00:00.0000, 5.060710266719058E+08, -9.244101357887217E+07, -2.115431295756254E+07,
2461183.500000000, A.D. 2026-May-23 00:00:00.0000, 5.083313003553908E+08, -8.350778789620589E+07, -2.129808821273203E+07,
2461190.500000000, A.D. 2026-May-30 00:00:00.0000, 5.104115651752149E+08, -7.454502655540031E+07, -2.143432114702158E+07,
2461197.500000000, A.D. 2026-Jun-06 00:00:00.0000, 5.123118067985458E+08, -6.555600556359320E+07, -2.156299380605021E+07,
2461204.500000000, A.D. 2026-Jun-13 00:00:00.0000, 5.140320542787660E+08, -5.654398173569168E+07, -2.168409011576427E+07,
2461211.500000000, A.D. 2026-Jun-20 00:00:00.0000, 5.155723800759623E+08, -4.751219342330530E+07, -2.179759597726188E+07,
2461218.500000000, A.D. 2026-Jun-27 00:00:00.0000, 5.169328997407386E+08, -3.846386045643900E+07, -2.190349926255572E+07,
2461225.500000000, A.D. 2026-Jul-04 00:00:00.0000, 5.181137712612184E+08, -2.940218407137760E+07, -2.200178977485660E+07,
2461232.500000000, A.D. 2026-Jul-11 00:00:00.0000, 5.191151943269709E+08, -2.033034695528599E+07, -2.209245920771854E+07,
2461239.500000000, A.D. 2026-Jul-18 00:00:00.0000, 5.199374096023207E+08, -1.125151338040422E+07, -2.217550110970341E+07,
2461246.500000000, A.D. 2026-Jul-25 00:00:00.0000, 5.205806980332773E+08, -2.168829423760088E+06, -2.225091085680847E+07,
2461253.500000000, A.D. 2026-Aug-01 00:00:00.0000, 5.210453802360318E+08, 6.914576680712195E+06, -2.231868564119849E+07,
2461260.500000000, A.D. 2026-Aug-08 00:00:00.0000, 5.213318161815596E+08, 1.599559402276598E+07, -2.237882449905303E+07,
2461267.500000000, A.D. 2026-Aug-15 00:00:00.0000, 5.214404055903339E+08, 2.507112878060434E+07, -2.243132837890122E+07,
2461274.500000000, A.D. 2026-Aug-22 00:00:00.0000, 5.213715882750590E+08, 3.413810549301203E+07, -2.247620008082082E+07,
2461281.500000000, A.D. 2026-Aug-29 00:00:00.0000, 5.211258421431718E+08, 4.319346846806034E+07, -2.251344396870332E+07,
2461288.500000000, A.D. 2026-Sep-05 00:00:00.0000, 5.207036809936242E+08, 5.223418046063040E+07, -2.254306588575410E+07,
$$EOE